{
    "type": "FeatureCollection",
    "features": [
        {
            "type": "Feature",
            "properties": {
                "name": "Downtown"
            },
            "geometry": {
                "type": "Polygon",
                "coordinates": [
                    [
                        [2248, 5798],
                        [1752, 5804],
                        [1734, 5774],
                        [1782, 5722],
                        [1762, 5668],
                        [1846, 5580],
                        [1780, 5562],
                        [1754, 5504],
                        [1766, 5456],
                        [2012, 5456],
                        [2072, 5356],
                        [2248, 5350],
                        [2248, 5798]
                    ]
                ]
            }
        },
        {
            "type": "Feature",
            "properties": {
                "name": "University District"
            },
            "geometry": {
                "type": "Polygon",
                "coordinates": [
                    [
                        [1764, 5482],
                        [1624, 5470],
                        [1596, 5436],
                        [1596, 5372],
                        [1608, 5146],
                        [1618, 5108],
                        [1664, 5100],
                        [1702, 5088],
                        [1876, 5086],
                        [2542, 5094],
                        [2538, 5158],
                        [2538, 5208],
                        [2564, 5242],
                        [2708, 5164],
                        [2824, 5112],
                        [2876, 5174],
                        [2742, 5230],
                        [2694, 5284],
                        [2682, 5360],
                        [2076, 5348],
                        [2014, 5460],
                        [1768, 5454],
                        [1764, 5482]
                    ]
                ]
            }
        },
        {
            "type": "Feature",
            "properties": {
                "name": "South Night City"
            },
            "geometry": {
                "type": "Polygon",
                "coordinates": [
                    [
                        [1696, 5088],
                        [2536, 5096],
                        [2538, 4948],
                        [2478, 4838],
                        [2716, 4348],
                        [3036, 4316],
                        [3090, 4196],
                        [3118, 4084],
                        [3036, 4058],
                        [2940, 4048],
                        [2800, 4042],
                        [2720, 4046],
                        [2646, 4074],
                        [2584, 4064],
                        [2510, 4028],
                        [2416, 4006],
                        [2316, 4010],
                        [2076, 4082],
                        [2034, 4126],
                        [2024, 4164],
                        [2072, 4182],
                        [2246, 4140],
                        [2502, 4242],
                        [2516, 4274],
                        [2498, 4590],
                        [2456, 4636],
                        [2340, 4638],
                        [2168, 4636],
                        [2062, 4650],
                        [1974, 4674],
                        [1976, 4930],
                        [1958, 4956],
                        [1900, 4964],
                        [1732, 4962],
                        [1706, 4948],
                        [1694, 4988],
                        [1696, 5088]
                    ]
                ]
            }
        },
        {
            "type": "Feature",
            "properties": {
                "name": "Port of Night City"
            },
            "geometry": {
                "type": "Polygon",
                "coordinates": [
                    [
                        [1710, 4946],
                        [1732, 4966],
                        [1950, 4964],
                        [1976, 4938],
                        [1978, 4854],
                        [1980, 4686],
                        [2016, 4656],
                        [2170, 4638],
                        [2310, 4644],
                        [2356, 4642],
                        [2068, 4184],
                        [2026, 4161],
                        [1984, 4174],
                        [1973, 4206],
                        [1970, 4253],
                        [1952, 4294],
                        [1936, 4331],
                        [1951, 4361],
                        [1965, 4389],
                        [1939, 4419],
                        [1928, 4450],
                        [1948, 4475],
                        [1959, 4518],
                        [1926, 4541],
                        [1882, 4568],
                        [1839, 4566],
                        [1804, 4594],
                        [1803, 4652],
                        [1816, 4764],
                        [1805, 4805],
                        [1741, 4866],
                        [1733, 4924],
                        [1710, 4946]
                    ]
                ]
            }
        },
        {
            "type": "Feature",
            "properties": {
                "name": "Reclamation Zone"
            },
            "geometry": {
                "type": "Polygon",
                "coordinates": [
                    [
                        [2075, 4186],
                        [2358, 4644],
                        [2449, 4638],
                        [2500, 4592],
                        [2520, 4299],
                        [2506, 4251],
                        [2492, 4231],
                        [2260, 4144],
                        [2241, 4137],
                        [2075, 4186]
                    ]
                ]
            }
        },
        {
            "type": "Feature",
            "properties": {
                "name": "Little Europe"
            },
            "geometry": {
                "type": "Polygon",
                "coordinates": [
                    [
                        [1750, 5804],
                        [1764, 5882],
                        [1830, 5920],
                        [1862, 5958],
                        [1956, 5992],
                        [1974, 6024],
                        [1946, 6048],
                        [1942, 6082],
                        [1990, 6114],
                        [2050, 6138],
                        [2112, 6128],
                        [2186, 6114],
                        [2240, 6140],
                        [2328, 6198],
                        [2400, 6194],
                        [2490, 6166],
                        [2540, 6178],
                        [2636, 6222],
                        [2728, 6250],
                        [2800, 6254],
                        [2866, 6248],
                        [2862, 5984],
                        [2882, 5964],
                        [2714, 5804],
                        [2708, 5730],
                        [2682, 5670],
                        [2674, 5362],
                        [2262, 5346],
                        [2246, 5374],
                        [2248, 5802],
                        [1750, 5804]
                    ]
                ]
            }
        },
        {
            "type": "Feature",
            "properties": {
                "name": "Pacifica Playground"
            },
            "geometry": {
                "type": "Polygon",
                "coordinates": [
                    [
                        [2907, 3779],
                        [2845, 3643],
                        [2927, 3567],
                        [2795, 3387],
                        [2591, 3153],
                        [2466, 3011],
                        [2448, 2891],
                        [2595, 2497],
                        [2548, 2479],
                        [2508, 2437],
                        [2444, 2439],
                        [2224, 2491],
                        [2100, 2539],
                        [1994, 2591],
                        [1906, 2651],
                        [1774, 2775],
                        [1670, 2879],
                        [1634, 2983],
                        [1662, 3043],
                        [1772, 3093],
                        [1862, 3117],
                        [1956, 3187],
                        [1918, 3255],
                        [1926, 3287],
                        [1810, 3371],
                        [1794, 3407],
                        [1846, 3451],
                        [1928, 3479],
                        [1934, 3511],
                        [1896, 3583],
                        [2084, 3643],
                        [2154, 3699],
                        [2238, 3727],
                        [2306, 3719],
                        [2382, 3787],
                        [2426, 3843],
                        [2506, 3837],
                        [2645, 3791],
                        [2745, 3803],
                        [2907, 3779]
                    ]
                ]
            }
        },
        {
            "type": "Feature",
            "properties": {
                "name": "Rancho Coronado"
            },
            "geometry": {
                "type": "Polygon",
                "coordinates": [
                    [
                        [2939, 3591],
                        [2931, 3561],
                        [2723, 3303],
                        [2518, 3075],
                        [2470, 3013],
                        [2448, 2893],
                        [2595, 2495],
                        [2695, 2531],
                        [2775, 2539],
                        [2951, 2519],
                        [3113, 2477],
                        [3287, 2415],
                        [3379, 2343],
                        [3423, 2163],
                        [3633, 2085],
                        [3831, 2107],
                        [3931, 2219],
                        [3981, 2303],
                        [4029, 2563],
                        [3979, 2665],
                        [3993, 2823],
                        [4217, 2897],
                        [3827, 3173],
                        [3817, 3251],
                        [3507, 3523],
                        [2939, 3591]
                    ]
                ]
            }
        },
        {
            "type": "Feature",
            "properties": {
                "name": "Santo Domingo"
            },
            "geometry": {
                "type": "Polygon",
                "coordinates": [
                    [
                        [2913, 3777],
                        [2841, 3639],
                        [2933, 3565],
                        [2941, 3591],
                        [3505, 3529],
                        [3823, 3253],
                        [3831, 3171],
                        [4227, 2895],
                        [4403, 2957],
                        [4581, 2933],
                        [5029, 3129],
                        [5133, 3321],
                        [5265, 3557],
                        [5333, 3681],
                        [5181, 3989],
                        [5101, 4033],
                        [5077, 4137],
                        [4785, 4313],
                        [4749, 4369],
                        [4501, 4513],
                        [4373, 4489],
                        [4395, 4399],
                        [4301, 4271],
                        [4105, 3977],
                        [4051, 3897],
                        [3977, 3897],
                        [3785, 4013],
                        [3701, 4141],
                        [3471, 3841],
                        [3293, 3759],
                        [3149, 3743],
                        [2913, 3777]
                    ]
                ]
            }
        },
        {
            "type": "Feature",
            "properties": {
                "name": "Heywood Industrial"
            },
            "geometry": {
                "type": "Polygon",
                "coordinates": [
                    [
                        [3699, 4141],
                        [3811, 4329],
                        [3915, 4465],
                        [4107, 4651],
                        [4371, 4491],
                        [4395, 4401],
                        [4051, 3897],
                        [3977, 3891],
                        [3779, 4013],
                        [3699, 4141]
                    ]
                ]
            }
        },
        {
            "type": "Feature",
            "properties": {
                "name": "Heywood Docks"
            },
            "geometry": {
                "type": "Polygon",
                "coordinates": [
                    [
                        [4098, 4653],
                        [4104, 4681],
                        [4309, 4937],
                        [4615, 5239],
                        [4653, 5237],
                        [4763, 5261],
                        [4795, 5225],
                        [4771, 5091],
                        [4775, 4999],
                        [4831, 4953],
                        [4769, 4827],
                        [4669, 4809],
                        [4499, 4683],
                        [4297, 4537],
                        [4098, 4653]
                    ]
                ]
            }
        },
        {
            "type": "Feature",
            "properties": {
                "name": "North Heywood"
            },
            "geometry": {
                "type": "Polygon",
                "coordinates": [
                    [
                        [4777, 5263],
                        [5003, 5299],
                        [5147, 5063],
                        [5223, 5077],
                        [5297, 5031],
                        [5331, 5033],
                        [5611, 4847],
                        [5597, 4745],
                        [5455, 4547],
                        [5389, 4521],
                        [5191, 3985],
                        [5099, 4037],
                        [5073, 4141],
                        [4787, 4313],
                        [4745, 4371],
                        [4493, 4513],
                        [4363, 4491],
                        [4295, 4537],
                        [4615, 4765],
                        [4691, 4825],
                        [4757, 4823],
                        [4831, 4957],
                        [4777, 5001],
                        [4769, 5087],
                        [4795, 5195],
                        [4777, 5263]
                    ]
                ]
            }
        },
        {
            "type": "Feature",
            "properties": {
                "name": "The Glen"
            },
            "geometry": {
                "type": "Polygon",
                "coordinates": [
                    [
                        [2878, 5179],
                        [2834, 5111],
                        [2802, 5113],
                        [2558, 5237],
                        [2532, 5199],
                        [2536, 4957],
                        [2478, 4837],
                        [2712, 4353],
                        [3034, 4317],
                        [3082, 4385],
                        [3170, 4399],
                        [3216, 4453],
                        [3230, 4477],
                        [3210, 4519],
                        [3222, 4599],
                        [3246, 4733],
                        [3266, 4819],
                        [3270, 4843],
                        [3232, 4893],
                        [3238, 5189],
                        [3128, 5151],
                        [3022, 5135],
                        [2948, 5141],
                        [2878, 5179]
                    ]
                ]
            }
        },
        {
            "type": "Feature",
            "properties": {
                "name": "Old Combat Zone"
            },
            "geometry": {
                "type": "Polygon",
                "coordinates": [
                    [
                        [3266, 4825],
                        [3290, 4811],
                        [3531, 4809],
                        [3703, 4661],
                        [3316, 4177],
                        [3246, 4107],
                        [3124, 4089],
                        [3094, 4189],
                        [3032, 4317],
                        [3078, 4383],
                        [3168, 4399],
                        [3234, 4475],
                        [3208, 4527],
                        [3258, 4771],
                        [3266, 4825]
                    ]
                ]
            }
        },
        {
            "type": "Feature",
            "properties": {
                "name": "Old Japantown"
            },
            "geometry": {
                "type": "Polygon",
                "coordinates": [
                    [
                        [3241, 5189],
                        [3365, 5245],
                        [3419, 5259],
                        [3525, 5221],
                        [3629, 5259],
                        [3705, 5055],
                        [3729, 5047],
                        [4023, 5049],
                        [3945, 4983],
                        [3877, 4875],
                        [3781, 4755],
                        [3707, 4657],
                        [3529, 4809],
                        [3283, 4810],
                        [3266, 4821],
                        [3269, 4844],
                        [3238, 4879],
                        [3234, 4899],
                        [3234, 5141],
                        [3241, 5189]
                    ]
                ]
            }
        },
        {
            "type": "Feature",
            "properties": {
                "name": "Little China"
            },
            "geometry": {
                "type": "Polygon",
                "coordinates": [
                    [
                        [3721, 5470],
                        [3719, 5455],
                        [3733, 5407],
                        [3701, 5355],
                        [3673, 5313],
                        [3649, 5264],
                        [3630, 5256],
                        [3706, 5052],
                        [3735, 5044],
                        [4021, 5049],
                        [4335, 5388],
                        [4359, 5433],
                        [4358, 5474],
                        [4269, 5554],
                        [4224, 5577],
                        [4069, 5573],
                        [3932, 5568],
                        [3870, 5565],
                        [3842, 5552],
                        [3827, 5518],
                        [3781, 5488],
                        [3745, 5470],
                        [3721, 5470]
                    ]
                ]
            }
        },
        {
            "type": "Feature",
            "properties": {
                "name": "The Hot Zone"
            },
            "geometry": {
                "type": "Polygon",
                "coordinates": [
                    [
                        [2887, 5969],
                        [2925, 5992],
                        [3195, 5983],
                        [3261, 5979],
                        [3307, 5963],
                        [3325, 5949],
                        [3335, 5892],
                        [3393, 5813],
                        [3458, 5748],
                        [3537, 5731],
                        [3559, 5723],
                        [3652, 5657],
                        [3681, 5627],
                        [3693, 5608],
                        [3703, 5589],
                        [3722, 5481],
                        [3727, 5467],
                        [3716, 5457],
                        [3734, 5409],
                        [3679, 5322],
                        [3649, 5265],
                        [3547, 5227],
                        [3524, 5222],
                        [3439, 5246],
                        [3416, 5253],
                        [3355, 5243],
                        [3252, 5192],
                        [3131, 5154],
                        [3060, 5138],
                        [3021, 5141],
                        [2957, 5145],
                        [2880, 5167],
                        [2747, 5228],
                        [2694, 5291],
                        [2675, 5382],
                        [2679, 5650],
                        [2681, 5673],
                        [2702, 5711],
                        [2709, 5803],
                        [2887, 5969]
                    ]
                ]
            }
        },
        {
            "type": "Feature",
            "properties": {
                "name": "Kabuki"
            },
            "geometry": {
                "type": "Polygon",
                "coordinates": [
                    [
                        [3287, 7291],
                        [3242, 7033],
                        [3188, 6704],
                        [3162, 6552],
                        [3145, 6444],
                        [3133, 6357],
                        [3221, 6341],
                        [3242, 6339],
                        [3264, 6343],
                        [3282, 6352],
                        [3296, 6370],
                        [3302, 6407],
                        [3317, 6427],
                        [3384, 6475],
                        [3389, 6495],
                        [3398, 6513],
                        [3452, 6547],
                        [3487, 6651],
                        [3474, 6885],
                        [3610, 6837],
                        [3583, 7255],
                        [3566, 7271],
                        [3458, 7273],
                        [3441, 7301],
                        [3287, 7291]
                    ]
                ]
            }
        },
        {
            "type": "Feature",
            "properties": {
                "name": "Exec Zone"
            },
            "geometry": {
                "type": "Polygon",
                "coordinates": [
                    [
                        [4588, 6482],
                        [4610, 6482],
                        [4633, 6476],
                        [4740, 6414],
                        [4831, 6351],
                        [4870, 6332],
                        [4886, 6328],
                        [4931, 6324],
                        [5017, 6327],
                        [5052, 6322],
                        [5069, 6284],
                        [5102, 6213],
                        [5112, 6151],
                        [5107, 6034],
                        [5110, 5995],
                        [5087, 5892],
                        [5074, 5848],
                        [5043, 5821],
                        [5005, 5799],
                        [4931, 5794],
                        [4817, 5812],
                        [4740, 5832],
                        [4702, 5874],
                        [4671, 5932],
                        [4641, 5984],
                        [4600, 6032],
                        [4591, 6062],
                        [4591, 6099],
                        [4605, 6183],
                        [4600, 6233],
                        [4589, 6306],
                        [4585, 6332],
                        [4565, 6375],
                        [4564, 6422],
                        [4568, 6462],
                        [4588, 6482]
                    ]
                ]
            }
        },
        {
            "type": "Feature",
            "properties": {
                "name": "Charter Hill"
            },
            "geometry": {
                "type": "Polygon",
                "coordinates": [
                    [
                        [5056, 6318],
                        [5077, 6324],
                        [5095, 6366],
                        [5021, 6633],
                        [4993, 6661],
                        [4901, 6714],
                        [4702, 6795],
                        [4660, 6802],
                        [4617, 6794],
                        [4581, 6781],
                        [4547, 6749],
                        [4519, 6718],
                        [4519, 6690],
                        [4517, 6666],
                        [4500, 6627],
                        [4489, 6594],
                        [4487, 6550],
                        [4473, 6504],
                        [4470, 6454],
                        [4421, 6395],
                        [4415, 6377],
                        [4424, 6360],
                        [4423, 6192],
                        [4426, 6138],
                        [4435, 6062],
                        [4422, 6021],
                        [4465, 5952],
                        [4588, 5838],
                        [4649, 5776],
                        [4702, 5709],
                        [4751, 5672],
                        [4775, 5670],
                        [4835, 5674],
                        [4855, 5671],
                        [4857, 5684],
                        [4875, 5680],
                        [4943, 5752],
                        [4954, 5778],
                        [4943, 5796],
                        [4755, 5828],
                        [4719, 5855],
                        [4674, 5912],
                        [4663, 5947],
                        [4637, 5989],
                        [4602, 6028],
                        [4588, 6068],
                        [4595, 6126],
                        [4604, 6183],
                        [4599, 6227],
                        [4585, 6326],
                        [4563, 6377],
                        [4564, 6429],
                        [4568, 6468],
                        [4589, 6484],
                        [4610, 6483],
                        [4632, 6477],
                        [4687, 6448],
                        [4761, 6401],
                        [4828, 6355],
                        [4865, 6336],
                        [4887, 6330],
                        [4931, 6325],
                        [4994, 6326],
                        [5025, 6325],
                        [5056, 6318]
                    ]
                ]
            }
        },
        {
            "type": "Feature",
            "properties": {
                "name": "Upper Marina"
            },
            "geometry": {
                "type": "Polygon",
                "coordinates": [
                    [
                        [2860, 6243],
                        [2860, 5993],
                        [2884, 5961],
                        [2918, 5989],
                        [3252, 5981],
                        [3310, 5965],
                        [3324, 5943],
                        [3346, 5873],
                        [3408, 5801],
                        [3464, 5745],
                        [3544, 5733],
                        [3669, 5641],
                        [3702, 5590],
                        [3720, 5479],
                        [3748, 5471],
                        [3828, 5519],
                        [3858, 5559],
                        [4229, 5575],
                        [4297, 5547],
                        [4311, 5547],
                        [4357, 5809],
                        [4345, 5836],
                        [4210, 5978],
                        [4231, 6083],
                        [4231, 6105],
                        [4051, 6238],
                        [3760, 6658],
                        [3734, 6807],
                        [3607, 6836],
                        [3473, 6887],
                        [3485, 6684],
                        [3523, 6673],
                        [3565, 6627],
                        [3583, 6529],
                        [3601, 6460],
                        [3654, 6393],
                        [3811, 6224],
                        [3899, 6103],
                        [3909, 6085],
                        [3961, 6045],
                        [3989, 5989],
                        [4052, 5935],
                        [4091, 5900],
                        [4129, 5791],
                        [4127, 5767],
                        [4111, 5773],
                        [4076, 5825],
                        [4040, 5854],
                        [3993, 5894],
                        [3968, 5951],
                        [3877, 6017],
                        [3847, 6045],
                        [3805, 6111],
                        [3747, 6149],
                        [3679, 6161],
                        [3613, 6159],
                        [3550, 6178],
                        [3481, 6171],
                        [3437, 6184],
                        [3381, 6212],
                        [3332, 6216],
                        [3261, 6197],
                        [3192, 6213],
                        [3150, 6206],
                        [3105, 6193],
                        [3064, 6208],
                        [3001, 6229],
                        [2946, 6243],
                        [2889, 6251],
                        [2860, 6243]
                    ]
                ]
            }
        },
        {
            "type": "Feature",
            "properties": {
                "name": "New Westbrook"
            },
            "geometry": {
                "type": "Polygon",
                "coordinates": [
                    [
                        [4851, 5674],
                        [4998, 5300],
                        [4777, 5261],
                        [4647, 5231],
                        [4609, 5236],
                        [4360, 5454],
                        [4344, 5496],
                        [4259, 5562],
                        [4307, 5547],
                        [4347, 5747],
                        [4355, 5804],
                        [4343, 5834],
                        [4211, 5980],
                        [4230, 6106],
                        [4068, 6221],
                        [4048, 6238],
                        [3812, 6582],
                        [3758, 6653],
                        [3736, 6804],
                        [3610, 6839],
                        [3582, 7256],
                        [3566, 7269],
                        [3457, 7274],
                        [3439, 7301],
                        [3350, 7712],
                        [3494, 7884],
                        [3572, 7936],
                        [3743, 8039],
                        [3925, 8023],
                        [4210, 7775],
                        [4316, 7630],
                        [4390, 7521],
                        [4491, 7306],
                        [4536, 7206],
                        [4622, 6793],
                        [4581, 6778],
                        [4523, 6718],
                        [4516, 6694],
                        [4510, 6649],
                        [4492, 6611],
                        [4489, 6591],
                        [4487, 6571],
                        [4485, 6550],
                        [4475, 6509],
                        [4471, 6485],
                        [4468, 6448],
                        [4423, 6397],
                        [4417, 6379],
                        [4424, 6361],
                        [4425, 6192],
                        [4428, 6128],
                        [4434, 6084],
                        [4434, 6062],
                        [4424, 6023],
                        [4426, 6001],
                        [4497, 5927],
                        [4618, 5806],
                        [4651, 5776],
                        [4673, 5744],
                        [4700, 5710],
                        [4734, 5683],
                        [4750, 5673],
                        [4776, 5669],
                        [4812, 5675],
                        [4835, 5676],
                        [4851, 5674]
                    ]
                ]
            }
        },
        {
            "type": "Feature",
            "properties": {
                "name": "Norcal Military Base"
            },
            "geometry": {
                "type": "Polygon",
                "coordinates": [
                    [
                        [1408, 7325],
                        [1798, 7887],
                        [2138, 8097],
                        [2466, 8233],
                        [2582, 8233],
                        [2700, 8143],
                        [2810, 8313],
                        [3315, 7981],
                        [3311, 7959],
                        [3082, 7645],
                        [3130, 7559],
                        [2838, 7427],
                        [2890, 7333],
                        [2746, 7323],
                        [2692, 7439],
                        [2586, 7397],
                        [2518, 7413],
                        [2330, 7703],
                        [2244, 7719],
                        [2124, 7905],
                        [1866, 7745],
                        [1854, 7719],
                        [1534, 7229],
                        [1408, 7325]
                    ]
                ]
            }
        },
        {
            "type": "Feature",
            "properties": {
                "name": "Watson Development"
            },
            "geometry": {
                "type": "Polygon",
                "coordinates": [
                    [
                        [2806, 8315],
                        [3038, 8667],
                        [3199, 8689],
                        [3663, 7989],
                        [3495, 7881],
                        [3349, 7709],
                        [3439, 7301],
                        [3285, 7291],
                        [3131, 6359],
                        [3109, 6357],
                        [2973, 6396],
                        [2620, 6515],
                        [2590, 6591],
                        [2562, 6689],
                        [2514, 6813],
                        [2474, 6935],
                        [2418, 7111],
                        [2386, 7199],
                        [2374, 7229],
                        [2268, 7365],
                        [2158, 7331],
                        [1862, 7725],
                        [1870, 7745],
                        [2122, 7905],
                        [2244, 7719],
                        [2330, 7705],
                        [2523, 7405],
                        [2584, 7401],
                        [2694, 7437],
                        [2755, 7323],
                        [2885, 7328],
                        [2844, 7425],
                        [3128, 7553],
                        [3130, 7571],
                        [3086, 7645],
                        [3313, 7953],
                        [3315, 7985],
                        [2806, 8315]
                    ]
                ]
            }
        },
        {
            "type": "Feature",
            "properties": {
                "name": "Morro Rock"
            },
            "geometry": {
                "type": "Polygon",
                "coordinates": [
                    [
                        [470, 5949],
                        [562, 5859],
                        [1130, 5859],
                        [1170, 5811],
                        [1294, 5813],
                        [1330, 5843],
                        [1330, 5889],
                        [1356, 5913],
                        [1464, 5939],
                        [1490, 5967],
                        [1534, 5975],
                        [1574, 5999],
                        [1614, 6033],
                        [1660, 6081],
                        [1666, 6133],
                        [1714, 6165],
                        [1708, 6245],
                        [1694, 6269],
                        [1710, 6337],
                        [1626, 6455],
                        [1578, 6505],
                        [1482, 6515],
                        [1420, 6531],
                        [1362, 6535],
                        [1296, 6557],
                        [1288, 6623],
                        [1254, 6659],
                        [1186, 6653],
                        [1150, 6615],
                        [998, 6611],
                        [958, 6571],
                        [962, 6499],
                        [504, 6503],
                        [466, 6475],
                        [470, 5949]
                    ]
                ]
            }
        }
    ]
}
